{"status":200,"response":{"KPFacilities":[{"facility_type":"Hospital","official_name":"Antioch Medical Center","address":{"street":"4501 Sand Creek Road","city":"Antioch","state":"CA","zip":"94531"},"url":"http:\/\/kp.org\/kpweb\/facilitydir\/facility.do?id=100382","loc":["-121.775","37.9509"]},{"facility_type":"Hospital","official_name":"Kaiser Foundation Rehabilitation Center (KFRC)","address":{"street":"975 Sereno Drive","city":"Vallejo","state":"CA","zip":"94589"},"url":"http:\/\/kp.org\/kpweb\/facilitydir\/facility.do?id=100298","loc":["-122.248","38.1277"]},{"facility_type":"Medical Office Building","official_name":"West Marin Medical Center","address":{"street":"11150 State Route 1","city":"Point Reyes Station","state":"CA","zip":"94956"},"url":"http:\/\/kp.org\/kpweb\/facilitydir\/facility.do?id=300428","loc":["-122.805","38.0674"]},{"facility_type":"Medical Office Building","official_name":"Union City Medical Offices","address":{"street":"3555 Whipple Road","city":"Union City","state":"CA","zip":"94587"},"url":"http:\/\/kp.org\/kpweb\/facilitydir\/facility.do?id=100358","loc":["-122.083","37.6069"]},{"facility_type":"Medical Office Building","official_name":"Turlock Pediatric Medical Group","address":{"street":"1100 Delbon Ave.","city":"Turlock","state":"CA","zip":"95382"},"url":"http:\/\/kp.org\/kpweb\/facilitydir\/facility.do?id=300407","loc":["-120.836","37.5104"]},{"facility_type":"Hospital","official_name":"Kaiser Permanente Fremont Medical Center and Offices","address":{"street":"39400 Paseo Padre Parkway","city":"Fremont","state":"CA","zip":"94538"},"url":"http:\/\/kp.org\/kpweb\/facilitydir\/facility.do?id=100367","loc":["-121.974","37.5524"]},{"facility_type":"Hospital","official_name":"Kaiser Permanente Fresno Medical Center","address":{"street":"7300 North Fresno St.","city":"Fresno","state":"CA","zip":"93720"},"url":"http:\/\/kp.org\/kpweb\/facilitydir\/facility.do?id=100363","loc":["-119.78","36.8423"]},{"facility_type":"Hospital","official_name":"Kaiser Permanente San Francisco Medical Center and Medical Offices","address":{"street":"2425 Geary Boulevard","city":"San Francisco","state":"CA","zip":"94115"},"url":"http:\/\/kp.org\/kpweb\/facilitydir\/facility.do?id=100328","loc":["-122.443","37.7823"]},{"facility_type":"Hospital","official_name":"Kaiser Permanente Sacramento Medical Center and Medical Offices","address":{"street":"2025 Morse Avenue","city":"Sacramento","state":"CA","zip":"95825"},"url":"http:\/\/kp.org\/kpweb\/facilitydir\/facility.do?id=100330","loc":["-121.392","38.6019"]},{"facility_type":"Hospital","official_name":"Kaiser Permanente Roseville Medical Center","address":{"street":"1600 Eureka Road","city":"Roseville","state":"CA","zip":"95661"},"url":"http:\/\/kp.org\/kpweb\/facilitydir\/facility.do?id=100331","loc":["-121.251","38.7474"]},{"facility_type":"Hospital","official_name":"Kaiser Permanente Richmond Medical Center","address":{"street":"901 Nevin Ave.","city":"Richmond","state":"CA","zip":"94801"},"url":"http:\/\/kp.org\/kpweb\/facilitydir\/facility.do?id=100336","loc":["-122.361","37.9371"]},{"facility_type":"Medical Office Building","official_name":"Tracy Medical Offices","address":{"street":"2185 W. Grant Line Road","city":"Tracy","state":"CA","zip":"95377"},"url":"http:\/\/kp.org\/kpweb\/facilitydir\/facility.do?id=100317","loc":["-121.457","37.7558"]},{"facility_type":"Medical Office Building","official_name":"Stockton Medical Offices","address":{"street":"7373 West Lane","city":"Stockton","state":"CA","zip":"95210"},"url":"http:\/\/kp.org\/kpweb\/facilitydir\/facility.do?id=100318","loc":["-121.298","38.0175"]},{"facility_type":"Medical Office Building","official_name":"Santa Rosa Medical Offices","address":{"street":"3925 Old Redwood Highway","city":"Santa Rosa","state":"CA","zip":"95403"},"url":"http:\/\/kp.org\/kpweb\/facilitydir\/facility.do?id=100323","loc":["-122.736","38.4827"]},{"facility_type":"Medical Office Building","official_name":"Santa Rosa Hearing Center and Plastic Surgery","address":{"street":"3333 Mendocino Ave","city":"Santa Rosa","state":"CA","zip":"95403"},"url":"http:\/\/kp.org\/kpweb\/facilitydir\/facility.do?id=100306","loc":["-122.723","38.4696"]},{"facility_type":"Medical Office Building","official_name":"Santa Rosa Chronic Pain, Endocrinology, and Neurology","address":{"street":"3559 Round Barn Blvd.","city":"Santa Rosa","state":"CA","zip":"95403"},"url":"http:\/\/kp.org\/kpweb\/facilitydir\/facility.do?id=100307","loc":["-122.729","38.4785"]},{"facility_type":"Medical Office Building","official_name":"Santa Clara Arques Medical Offices","address":{"street":"1263 E Arques Ave","city":"Sunnyvale","state":"CA","zip":"94085"},"url":"http:\/\/kp.org\/kpweb\/facilitydir\/facility.do?id=300533","loc":["-121.99","37.3813"]},{"facility_type":"Medical Office Building","official_name":"Santa Rosa Psychiatry and Chemical Dependency Offices","address":{"street":"3554 Round Barn Blvd.","city":"Santa Rosa","state":"CA","zip":"95403"},"url":"http:\/\/kp.org\/kpweb\/facilitydir\/facility.do?id=100312","loc":["-122.725","38.4763"]},{"facility_type":"Medical Office Building","official_name":"Selma Medical Offices","address":{"street":"2651 Highland Avenue","city":"Selma","state":"CA","zip":"93662"},"url":"http:\/\/kp.org\/kpweb\/facilitydir\/facility.do?id=100321","loc":["-119.63","36.5719"]},{"facility_type":"Medical Office Building","official_name":"Stinson Beach Medical Center","address":{"street":"3419 State Route 1","city":"Stinson Beach","state":"CA","zip":"94970"},"url":"http:\/\/kp.org\/kpweb\/facilitydir\/facility.do?id=300427","loc":["-122.638","37.8985"]},{"facility_type":"Medical Office Building","official_name":"Standiford Avenue Medical Offices","address":{"street":"1320 Standiford Avenue","city":"Modesto","state":"CA","zip":"95350"},"url":"http:\/\/kp.org\/kpweb\/facilitydir\/facility.do?id=100309","loc":["-121.014","37.6889"]},{"facility_type":"Medical Office Building","official_name":"Standiford Avenue Medical Offices","address":{"street":"1320 Standiford Avenue","city":"Modesto","state":"CA","zip":"95350"},"url":"http:\/\/kp.org\/kpweb\/facilitydir\/facility.do?id=100309","loc":["-121.014","37.6889"]},{"facility_type":"Medical Office Building","official_name":"Sneath Lane Medical Offices","address":{"street":"1001 Sneath Lane, Suite 204","city":"San Bruno","state":"CA","zip":"94066"},"url":"http:\/\/kp.org\/kpweb\/facilitydir\/facility.do?id=319481","loc":["-122.426","37.634"]},{"facility_type":"Hospital","official_name":"Kaiser Permanente San Jose Medical Center","address":{"street":"250 Hospital Parkway","city":"San Jose","state":"CA","zip":"95119"},"url":"http:\/\/kp.org\/kpweb\/facilitydir\/facility.do?id=100322","loc":["-121.8","37.2398"]},{"facility_type":"Hospital","official_name":"Kaiser Permanente San Rafael Medical Center","address":{"street":"99 Montecillo Road","city":"San Rafael","state":"CA","zip":"94903"},"url":"http:\/\/kp.org\/kpweb\/facilitydir\/facility.do?id=100327","loc":["-122.555","38.0043"]},{"facility_type":"Pharmacy","official_name":"Rite Aid Pharmacy","address":{"street":"651 N. Golden State Boulevard","city":"Turlock","state":"CA","zip":"95380"},"url":"http:\/\/kp.org\/kpweb\/facilitydir\/facility.do?id=300405","loc":["-120.851","37.4983"]},{"facility_type":"Pharmacy","official_name":"Rite Aid Pharmacy","address":{"street":"1300 West F Street","city":"Oakdale","state":"CA","zip":"95361"},"url":"http:\/\/kp.org\/kpweb\/facilitydir\/facility.do?id=300404","loc":["-120.863","37.7607"]},{"facility_type":"Pharmacy","official_name":"Rite Aid Pharmacy","address":{"street":"1935 N St.","city":"Newman","state":"CA","zip":"95360"},"url":"http:\/\/kp.org\/kpweb\/facilitydir\/facility.do?id=100348","loc":["-121.02","37.3099"]},{"facility_type":"Pharmacy","official_name":"Rite Aid Pharmacy","address":{"street":"1449 East F Street","city":"Oakdale","state":"CA","zip":"95361"},"url":"http:\/\/kp.org\/kpweb\/facilitydir\/facility.do?id=100346","loc":["-120.831","37.7709"]},{"facility_type":"Pharmacy","official_name":"Save Mart Pharmacy","address":{"street":"1035 Sperry Ave.","city":"Patterson","state":"CA","zip":"95363"},"url":"http:\/\/kp.org\/kpweb\/facilitydir\/facility.do?id=300406","loc":["-121.142","37.4654"]},{"facility_type":"Pharmacy","official_name":"Walgreens Pharmacy","address":{"street":"15 W. Harding Way","city":"Stockton","state":"CA","zip":"95204"},"url":"http:\/\/kp.org\/kpweb\/facilitydir\/facility.do?id=300408","loc":["-121.296","37.9675"]},{"facility_type":"Other","official_name":"Vision Essentials by Kaiser Permanente","address":{"street":"2417 Naglee Road","city":"Tracy","state":"CA","zip":"95304"},"url":"http:\/\/kp.org\/kpweb\/facilitydir\/facility.do?id=100311","loc":["-121.468","37.7551"]},{"facility_type":"Other","official_name":"Kaiser Permanente Post-Acute Care Center (KPPACC)","address":{"street":"1440 168th Ave.","city":"San Leandro","state":"CA","zip":"94578"},"url":"http:\/\/kp.org\/kpweb\/facilitydir\/facility.do?id=100560","loc":["-122.107","37.692"]},{"facility_type":"Pharmacy","official_name":"West Marin Pharmacy","address":{"street":"11 Fourth Street","city":"Point Reyes Station","state":"CA","zip":"94956"},"url":"http:\/\/kp.org\/kpweb\/facilitydir\/facility.do?id=300429","loc":["-122.807","38.0685"]},{"facility_type":"Pharmacy","official_name":"Walgreens Pharmacy","address":{"street":"7929 Lower Sacramento Road","city":"Stockton","state":"CA","zip":"95210"},"url":"http:\/\/kp.org\/kpweb\/facilitydir\/facility.do?id=300409","loc":["-121.323","38.0219"]},{"facility_type":"Hospital","official_name":"Vacaville Medical Center","address":{"street":"1 Quality Drive","city":"Vacaville","state":"CA","zip":"95688"},"url":"http:\/\/kp.org\/kpweb\/facilitydir\/facility.do?id=100315","loc":["-121.938","38.3885"]},{"facility_type":"Hospital","official_name":"St. Joseph's Medical Center","address":{"street":"1800 N. California St.","city":"Stockton","state":"CA","zip":"95204"},"url":"http:\/\/kp.org\/kpweb\/facilitydir\/facility.do?id=100373","loc":["-121.289","37.9707"]},{"facility_type":"Hospital","official_name":"Kaiser Permanente Walnut Creek Medical Center","address":{"street":"1425 South Main St.","city":"Walnut Creek","state":"CA","zip":"94596"},"url":"http:\/\/kp.org\/kpweb\/facilitydir\/facility.do?id=100313","loc":["-122.059","37.8916"]},{"facility_type":"Hospital","official_name":"Kaiser Permanente Vallejo Medical Center","address":{"street":"975 Sereno Drive","city":"Vallejo","state":"CA","zip":"94589"},"url":"http:\/\/kp.org\/kpweb\/facilitydir\/facility.do?id=100316","loc":["-122.248","38.1277"]},{"facility_type":"Hospital","official_name":"Kaiser Permanente South Sacramento Medical Center","address":{"street":"6600 Bruceville Road","city":"Sacramento","state":"CA","zip":"95823"},"url":"http:\/\/kp.org\/kpweb\/facilitydir\/facility.do?id=100320","loc":["-121.422","38.4699"]},{"facility_type":"Hospital","official_name":"Kaiser Permanente Santa Rosa Medical Center and Medical Offices","address":{"street":"401 Bicentennial Way","city":"Santa Rosa","state":"CA","zip":"95403"},"url":"http:\/\/kp.org\/kpweb\/facilitydir\/facility.do?id=100324","loc":["-122.727","38.4721"]},{"facility_type":"Hospital","official_name":"Manteca Medical Center","address":{"street":"1777 W. Yosemite Avenue","city":"Manteca","state":"CA","zip":"95337"},"url":"http:\/\/kp.org\/kpweb\/facilitydir\/facility.do?id=100356","loc":["-121.246","37.798"]},{"facility_type":"Hospital","official_name":"Modesto Medical Center and Medical Offices","address":{"street":"4601 Dale Road","city":"Modesto","state":"CA","zip":"95356"},"url":"http:\/\/kp.org\/kpweb\/facilitydir\/facility.do?id=100301","loc":["-121.052","37.7066"]},{"facility_type":"Hospital","official_name":"South San Francisco Medical Center","address":{"street":"1200 El Camino Real","city":"South San Francisco","state":"CA","zip":"94080"},"url":"http:\/\/kp.org\/kpweb\/facilitydir\/facility.do?id=100319","loc":["-122.439","37.6592"]},{"facility_type":"Hospital","official_name":"San Leandro Medical Center","address":{"street":"2500 Merced Street","city":"San Leandro","state":"CA","zip":"94577"},"url":"http:\/\/kp.org\/kpweb\/facilitydir\/facility.do?id=301981","loc":["-122.165","37.7064"]},{"facility_type":"Hospital","official_name":"Redwood City Medical Center","address":{"street":"1100 Veterans Blvd","city":"Redwood City","state":"CA","zip":"94063"},"url":"http:\/\/kp.org\/kpweb\/facilitydir\/facility.do?id=100337","loc":["-122.225","37.4891"]},{"facility_type":"Hospital","official_name":"Oakland Medical Center","address":{"street":"3600 Broadway","city":"Oakland","state":"CA","zip":"94611"},"url":"http:\/\/kp.org\/kpweb\/facilitydir\/facility.do?id=100344","loc":["-122.258","37.8235"]},{"facility_type":"Medical Office Building","official_name":"San Ramon Medical Offices","address":{"street":"2300 Camino Ramon","city":"San Ramon","state":"CA","zip":"94583"},"url":"http:\/\/kp.org\/kpweb\/facilitydir\/facility.do?id=302381","loc":["-121.967","37.7753"]},{"facility_type":"Medical Office Building","official_name":"San Mateo Medical Offices","address":{"street":"1000 Franklin Parkway","city":"San Mateo","state":"CA","zip":"94403"},"url":"http:\/\/kp.org\/kpweb\/facilitydir\/facility.do?id=300395","loc":["-122.291","37.5429"]},{"facility_type":"Medical Office Building","official_name":"Fairfield Medical Offices","address":{"street":"1550 Gateway Blvd.","city":"Fairfield","state":"CA","zip":"94533"},"url":"http:\/\/kp.org\/kpweb\/facilitydir\/facility.do?id=100371","loc":["-122.056","38.2636"]},{"facility_type":"Medical Office Building","official_name":"Family Health Care Medical Group","address":{"street":"1320 Celeste Drive","city":"Modesto","state":"CA","zip":"95355"},"url":"http:\/\/kp.org\/kpweb\/facilitydir\/facility.do?id=300400","loc":["-120.973","37.6717"]},{"facility_type":"Medical Office Building","official_name":"Fair Oaks Boulevard Medical Offices","address":{"street":"2345 Fair Oaks Blvd.","city":"Sacramento","state":"CA","zip":"95825"},"url":"http:\/\/kp.org\/kpweb\/facilitydir\/facility.do?id=100368","loc":["-121.408","38.5756"]},{"facility_type":"Medical Office Building","official_name":"Elk Grove Promenade Medical Office","address":{"street":"10305 Promenade Parkway","city":"Elk Grove","state":"CA","zip":"95757"},"url":"http:\/\/kp.org\/kpweb\/facilitydir\/facility.do?id=300468","loc":["-121.371","38.3845"]},{"facility_type":"Medical Office Building","official_name":"Elk Grove Medical Offices","address":{"street":"9201 Big Horn Blvd","city":"Elk Grove","state":"CA","zip":"95758"},"url":"http:\/\/kp.org\/kpweb\/facilitydir\/facility.do?id=100370","loc":["-121.406","38.4253"]},{"facility_type":"Medical Office Building","official_name":"First Care Medical Center","address":{"street":"101 North 3rd Street","city":"Patterson","state":"CA","zip":"95363"},"url":"http:\/\/kp.org\/kpweb\/facilitydir\/facility.do?id=300401","loc":["-121.131","37.4734"]},{"facility_type":"Medical Office Building","official_name":"First Street Medical Offices","address":{"street":"4785 North 1st Street","city":"Fresno","state":"CA","zip":"93726"},"url":"http:\/\/kp.org\/kpweb\/facilitydir\/facility.do?id=100366","loc":["-119.773","36.8048"]},{"facility_type":"Medical Office Building","official_name":"Gilroy Medical Offices","address":{"street":"7520 Arroyo Circle","city":"Gilroy","state":"CA","zip":"95020"},"url":"http:\/\/kp.org\/kpweb\/facilitydir\/facility.do?id=100362","loc":["-121.56","37.0125"]},{"facility_type":"Medical Office Building","official_name":"Fresno Hearing Center","address":{"street":"1630 E. Shaw Avenue, Suite 124","city":"Fresno","state":"CA","zip":"93710"},"url":"http:\/\/kp.org\/kpweb\/facilitydir\/facility.do?id=100303","loc":["-119.758","36.8098"]},{"facility_type":"Medical Office Building","official_name":"Folsom Medical Offices","address":{"street":"2155 Iron Point Road","city":"Folsom","state":"CA","zip":"95630"},"url":"http:\/\/kp.org\/kpweb\/facilitydir\/facility.do?id=100365","loc":["-121.135","38.6442"]},{"facility_type":"Medical Office Building","official_name":"Folsom Ambulatory Surgery","address":{"street":"285 Palladio Parkway","city":"Folsom","state":"CA","zip":"95630"},"url":"http:\/\/kp.org\/kpweb\/facilitydir\/facility.do?id=300098","loc":["-121.122","38.6474"]},{"facility_type":"Medical Office Building","official_name":"Downtown San Rafael Medical Offices - 3rd Street","address":{"street":"1033 Third St.","city":"San Rafael","state":"CA","zip":"94901"},"url":"http:\/\/kp.org\/kpweb\/facilitydir\/facility.do?id=100326","loc":["-122.528","37.9719"]},{"facility_type":"Medical Office Building","official_name":"Delta Fair Medical Offices","address":{"street":"3400 Delta Fair Blvd.","city":"Antioch","state":"CA","zip":"94509"},"url":"http:\/\/kp.org\/kpweb\/facilitydir\/facility.do?id=100571","loc":["-121.842","38.0044"]},{"facility_type":"Medical Office Building","official_name":"Campbell Medical Offices","address":{"street":"220 E. Hacienda Ave.","city":"Campbell","state":"CA","zip":"95008"},"url":"http:\/\/kp.org\/kpweb\/facilitydir\/facility.do?id=100379","loc":["-121.954","37.2681"]},{"facility_type":"Medical Office Building","official_name":"Bolinas Family Practice","address":{"street":"88 Mesa Road","city":"Bolinas","state":"CA","zip":"94924"},"url":"http:\/\/kp.org\/kpweb\/facilitydir\/facility.do?id=300425","loc":["-122.697","37.9111"]},{"facility_type":"Medical Office Building","official_name":"Bayhill Medical Offices","address":{"street":"801 Traeger Ave.","city":"San Bruno","state":"CA","zip":"94066"},"url":"http:\/\/kp.org\/kpweb\/facilitydir\/facility.do?id=100380","loc":["-122.422","37.6272"]},{"facility_type":"Medical Office Building","official_name":"Bangs Avenue Medical Offices","address":{"street":"4125 Bangs Ave.","city":"Modesto","state":"CA","zip":"95356"},"url":"http:\/\/kp.org\/kpweb\/facilitydir\/facility.do?id=100383","loc":["-121.071","37.705"]},{"facility_type":"Medical Office Building","official_name":"Chemical Dependency Recovery Program","address":{"street":"969 Broadway","city":"Oakland","state":"CA","zip":"94607"},"url":"http:\/\/kp.org\/kpweb\/facilitydir\/facility.do?id=100377","loc":["-122.273","37.8014"]},{"facility_type":"Medical Office Building","official_name":"Clovis Medical Offices","address":{"street":"2071 Herndon Ave.","city":"Clovis","state":"CA","zip":"93611"},"url":"http:\/\/kp.org\/kpweb\/facilitydir\/facility.do?id=100376","loc":["-119.678","36.8386"]},{"facility_type":"Medical Office Building","official_name":"Davis Medical Offices","address":{"street":"1955 Cowell Blvd.","city":"Davis","state":"CA","zip":"95618"},"url":"http:\/\/kp.org\/kpweb\/facilitydir\/facility.do?id=100372","loc":["-121.728","38.5409"]},{"facility_type":"Medical Office Building","official_name":"Daly City Medical Offices","address":{"street":"395 Hickey Blvd.","city":"Daly City","state":"CA","zip":"94015"},"url":"http:\/\/kp.org\/kpweb\/facilitydir\/facility.do?id=100374","loc":["-122.463","37.6628"]},{"facility_type":"Medical Office Building","official_name":"Dale Road Medical Offices","address":{"street":"3800 Dale Rd.","city":"Modesto","state":"CA","zip":"95356"},"url":"http:\/\/kp.org\/kpweb\/facilitydir\/facility.do?id=100381","loc":["-121.049","37.694"]},{"facility_type":"Medical Office Building","official_name":"Cornerstone Family Practice Medical Group","address":{"street":"1444 Florida Ave., Suite 202","city":"Modesto","state":"CA","zip":"95350"},"url":"http:\/\/kp.org\/kpweb\/facilitydir\/facility.do?id=300398","loc":["-120.996","37.6649"]},{"facility_type":"Medical Office Building","official_name":"Hayward-Sleepy Hollow Medical Offices","address":{"street":"27303 Sleepy Hollow Ave.","city":"Hayward","state":"CA","zip":"94545"},"url":"http:\/\/kp.org\/kpweb\/facilitydir\/facility.do?id=100361","loc":["-122.094","37.632"]},{"facility_type":"Medical Office Building","official_name":"Kaiser Permanente Hearing Center - Oakland","address":{"street":"2923 Webster Street, Suite 201","city":"Oakland","state":"CA","zip":"94609"},"url":"http:\/\/kp.org\/kpweb\/facilitydir\/facility.do?id=100360","loc":["-122.264","37.8181"]},{"facility_type":"Medical Office Building","official_name":"Pleasanton Medical Offices","address":{"street":"7601 Stoneridge Drive","city":"Pleasanton","state":"CA","zip":"94588"},"url":"http:\/\/kp.org\/kpweb\/facilitydir\/facility.do?id=100340","loc":["-121.927","37.6907"]},{"facility_type":"Medical Office Building","official_name":"Pinole Medical Offices","address":{"street":"1301 Pinole Valley Road","city":"Pinole","state":"CA","zip":"94564"},"url":"http:\/\/kp.org\/kpweb\/facilitydir\/facility.do?id=300005","loc":["-122.286","37.9991"]},{"facility_type":"Medical Office Building","official_name":"Petaluma Medical Offices","address":{"street":"3900 Lakeville Highway","city":"Petaluma","state":"CA","zip":"94954"},"url":"http:\/\/kp.org\/kpweb\/facilitydir\/facility.do?id=100341","loc":["-122.584","38.2296"]},{"facility_type":"Medical Office Building","official_name":"Park Shadelands Medical Offices","address":{"street":"320 Lennon Lane","city":"Walnut Creek","state":"CA","zip":"94598"},"url":"http:\/\/kp.org\/kpweb\/facilitydir\/facility.do?id=100343","loc":["-122.029","37.9273"]},{"facility_type":"Medical Office Building","official_name":"Point Reyes Medical Clinic","address":{"street":"3 Sixth Street","city":"Point Reyes Station","state":"CA","zip":"94956"},"url":"http:\/\/kp.org\/kpweb\/facilitydir\/facility.do?id=300426","loc":["-122.808","38.0691"]},{"facility_type":"Medical Office Building","official_name":"Point West Medical Offices","address":{"street":"1650 Response Road","city":"Sacramento","state":"CA","zip":"95815"},"url":"http:\/\/kp.org\/kpweb\/facilitydir\/facility.do?id=100339","loc":["-121.43","38.5963"]},{"facility_type":"Medical Office Building","official_name":"San Bruno Medical Offices","address":{"street":"901 El Camino Real","city":"San Bruno","state":"CA","zip":"94066"},"url":"http:\/\/kp.org\/kpweb\/facilitydir\/facility.do?id=100329","loc":["-122.418","37.631"]},{"facility_type":"Medical Office Building","official_name":"Roseville Medical Offices - Riverside","address":{"street":"1001 Riverside Ave.","city":"Roseville","state":"CA","zip":"95678"},"url":"http:\/\/kp.org\/kpweb\/facilitydir\/facility.do?id=100333","loc":["-121.289","38.7286"]},{"facility_type":"Medical Office Building","official_name":"Rohnert Park Medical Offices","address":{"street":"5900 State Farm Drive","city":"Rohnert Park","state":"CA","zip":"94928"},"url":"http:\/\/kp.org\/kpweb\/facilitydir\/facility.do?id=100332","loc":["-122.707","38.3539"]},{"facility_type":"Medical Office Building","official_name":"Rancho Cordova Medical Offices","address":{"street":"10725 International Drive","city":"Rancho Cordova","state":"CA","zip":"95670"},"url":"http:\/\/kp.org\/kpweb\/facilitydir\/facility.do?id=100338","loc":["-121.292","38.5773"]},{"facility_type":"Medical Office Building","official_name":"Oakhurst Medical Offices","address":{"street":"40595 Westlake Drive","city":"Oakhurst","state":"CA","zip":"93644"},"url":"http:\/\/kp.org\/kpweb\/facilitydir\/facility.do?id=100345","loc":["-119.669","37.338"]},{"facility_type":"Medical Office Building","official_name":"Novato Medical Offices","address":{"street":"97 San Marin Drive","city":"Novato","state":"CA","zip":"94945"},"url":"http:\/\/kp.org\/kpweb\/facilitydir\/facility.do?id=100347","loc":["-122.605","38.1221"]},{"facility_type":"Medical Office Building","official_name":"Manteca Medical Offices","address":{"street":"1721 West Yosemite Avenue","city":"Manteca","state":"CA","zip":"95337"},"url":"http:\/\/kp.org\/kpweb\/facilitydir\/facility.do?id=100355","loc":["-121.245","37.7983"]},{"facility_type":"Medical Office Building","official_name":"Livermore Medical Offices","address":{"street":"3000 Las Positas Road","city":"Livermore","state":"CA","zip":"94551"},"url":"http:\/\/kp.org\/kpweb\/facilitydir\/facility.do?id=100364","loc":["-121.763","37.7004"]},{"facility_type":"Medical Office Building","official_name":"Lincoln Medical Offices","address":{"street":"1900 Dresden Drive","city":"Lincoln","state":"CA","zip":"95648"},"url":"http:\/\/kp.org\/kpweb\/facilitydir\/facility.do?id=100302","loc":["-121.296","38.8552"]},{"facility_type":"Medical Office Building","official_name":"Kaiser Permanente Santa Clara Medical Center and Medical Offices","address":{"street":"700 Lawrence Expressway","city":"Santa Clara","state":"CA","zip":"95051"},"url":"http:\/\/kp.org\/kpweb\/facilitydir\/facility.do?id=100305","loc":["-121.998","37.3359"]},{"facility_type":"Medical Office Building","official_name":"Martinez Medical Offices","address":{"street":"200 Muir Road","city":"Martinez","state":"CA","zip":"94553"},"url":"http:\/\/kp.org\/kpweb\/facilitydir\/facility.do?id=100354","loc":["-122.11","37.9941"]},{"facility_type":"Medical Office Building","official_name":"Mill Valley Medical Offices","address":{"street":"750 Redwood Hwy., Suite 1206","city":"Mill Valley","state":"CA","zip":"94941"},"url":"http:\/\/kp.org\/kpweb\/facilitydir\/facility.do?id=100561","loc":["-122.515","37.8957"]},{"facility_type":"Medical Office Building","official_name":"Novato Hearing Center","address":{"street":"100 Rowland Way, Suite 125","city":"Novato","state":"CA","zip":"94945"},"url":"http:\/\/kp.org\/kpweb\/facilitydir\/facility.do?id=100578","loc":["-122.558","38.0971"]},{"facility_type":"Medical Office Building","official_name":"Napa Medical Offices","address":{"street":"3285 Claremont Way","city":"Napa","state":"CA","zip":"94558"},"url":"http:\/\/kp.org\/kpweb\/facilitydir\/facility.do?id=100349","loc":["-122.303","38.3203"]},{"facility_type":"Medical Office Building","official_name":"Mountain View Medical Offices","address":{"street":"555 Castro St.","city":"Mountain View","state":"CA","zip":"94041"},"url":"http:\/\/kp.org\/kpweb\/facilitydir\/facility.do?id=100351","loc":["-122.081","37.3892"]},{"facility_type":"Medical Office Building","official_name":"Milpitas Medical Offices","address":{"street":"770 E. Calaveras Blvd.","city":"Milpitas","state":"CA","zip":"95035"},"url":"http:\/\/kp.org\/kpweb\/facilitydir\/facility.do?id=100353","loc":["-121.892","37.4328"]},{"facility_type":"Medical Office Building","official_name":"Alameda Medical Offices","address":{"street":"2417 Central Ave.","city":"Alameda","state":"CA","zip":"94501"},"url":"http:\/\/kp.org\/kpweb\/facilitydir\/facility.do?id=100384","loc":["-122.242","37.7642"]}]}}