{"status":200,"response":{"KPFacilities":[{"facility_type":"Medical Office Building","official_name":"Wildomar Medical Offices","address":{"street":"36450 Inland Valley Drive","city":"Wildomar","state":"CA","zip":"92595"},"url":"http:\/\/kp.org\/kpweb\/facilitydir\/facility.do?id=100043","loc":["-117.236","33.5911"]},{"facility_type":"Medical Office Building","official_name":"Yorba Linda Medical Offices","address":{"street":"22550 Savi Ranch Parkway","city":"Yorba Linda","state":"CA","zip":"92887"},"url":"http:\/\/kp.org\/kpweb\/facilitydir\/facility.do?id=100026","loc":["-117.744","33.8737"]},{"facility_type":"Hospital","official_name":"Antelope Valley Hospital","address":{"street":"1600 W. Avenue J","city":"Lancaster","state":"CA","zip":"93534"},"url":"http:\/\/kp.org\/kpweb\/facilitydir\/facility.do?id=100172","loc":["-118.159","34.6892"]},{"facility_type":"Hospital","official_name":"Baldwin Park Medical Center","address":{"street":"1011 Baldwin Park Blvd.","city":"Baldwin Park","state":"CA","zip":"91706"},"url":"http:\/\/kp.org\/kpweb\/facilitydir\/facility.do?id=100167","loc":["-117.986","34.0654"]},{"facility_type":"Medical Office Building","official_name":"Whittier Medical Offices","address":{"street":"12470 Whittier Blvd.","city":"Whittier","state":"CA","zip":"90602"},"url":"http:\/\/kp.org\/kpweb\/facilitydir\/facility.do?id=100032","loc":["-118.045","33.9708"]},{"facility_type":"Medical Office Building","official_name":"West Covina Medical Offices","address":{"street":"1249 S Sunset Ave.","city":"West Covina","state":"CA","zip":"91790"},"url":"http:\/\/kp.org\/kpweb\/facilitydir\/facility.do?id=100039","loc":["-117.948","34.0613"]},{"facility_type":"Medical Office Building","official_name":"Ventura 888 South Hill Road Medical Offices","address":{"street":"888 S. Hill Road","city":"Ventura","state":"CA","zip":"93003"},"url":"http:\/\/kp.org\/kpweb\/facilitydir\/facility.do?id=100537","loc":["-119.207","34.2688"]},{"facility_type":"Medical Office Building","official_name":"Vista Medical Offices","address":{"street":"780 Shadowridge Drive","city":"Vista","state":"CA","zip":"92083"},"url":"http:\/\/kp.org\/kpweb\/facilitydir\/facility.do?id=100109","loc":["-117.221","33.1667"]},{"facility_type":"Medical Office Building","official_name":"West Covina Behavioral Health Offices","address":{"street":"1511 West Garvey Ave. North","city":"West Covina","state":"CA","zip":"91790"},"url":"http:\/\/kp.org\/kpweb\/facilitydir\/facility.do?id=100029","loc":["-117.938","34.0731"]},{"facility_type":"Hospital","official_name":"Community Memorial Hospital of San Buenaventura","address":{"street":"147 N. Brent Street","city":"Ventura","state":"CA","zip":"93003"},"url":"http:\/\/kp.org\/kpweb\/facilitydir\/facility.do?id=100145","loc":["-119.258","34.2746"]},{"facility_type":"Hospital","official_name":"Desert Regional Medical Center","address":{"street":"1150 N. Indian Canyon Drive","city":"Palm Springs","state":"CA","zip":"92262"},"url":"http:\/\/kp.org\/kpweb\/facilitydir\/facility.do?id=100139","loc":["-116.546","33.8386"]},{"facility_type":"Hospital","official_name":"Los Angeles Medical Center","address":{"street":"4867 W Sunset Blvd.","city":"Los Angeles","state":"CA","zip":"90027"},"url":"http:\/\/kp.org\/kpweb\/facilitydir\/facility.do?id=100099","loc":["-118.295","34.0987"]},{"facility_type":"Hospital","official_name":"Moreno Valley Community Hospital","address":{"street":"27300 Iris Ave.","city":"Moreno Valley","state":"CA","zip":"92555"},"url":"http:\/\/kp.org\/kpweb\/facilitydir\/facility.do?id=300019","loc":["-117.186","33.8961"]},{"facility_type":"Hospital","official_name":"Orange County - Anaheim Medical Center","address":{"street":"441 N. Lakeview Ave.","city":"Anaheim","state":"CA","zip":"92807"},"url":"http:\/\/kp.org\/kpweb\/facilitydir\/facility.do?id=100173","loc":["-117.817","33.8538"]},{"facility_type":"Hospital","official_name":"Orange County - Irvine Medical Center","address":{"street":"6640 Alton Pkwy.","city":"Irvine","state":"CA","zip":"92618"},"url":"http:\/\/kp.org\/kpweb\/facilitydir\/facility.do?id=100619","loc":["-117.774","33.6584"]},{"facility_type":"Hospital","official_name":"John F. Kennedy Memorial Hospital","address":{"street":"47111 Monroe St.","city":"Indio","state":"CA","zip":"92201"},"url":"http:\/\/kp.org\/kpweb\/facilitydir\/facility.do?id=100155","loc":["-116.235","33.7062"]},{"facility_type":"Hospital","official_name":"Inland Valley Medical Center","address":{"street":"36485 Inland Valley Drive","city":"Wildomar","state":"CA","zip":"92595"},"url":"http:\/\/kp.org\/kpweb\/facilitydir\/facility.do?id=100001","loc":["-117.238","33.5915"]},{"facility_type":"Hospital","official_name":"Downey Medical Center","address":{"street":"9333 Imperial Highway","city":"Downey","state":"CA","zip":"90242"},"url":"http:\/\/kp.org\/kpweb\/facilitydir\/facility.do?id=300025","loc":["-118.129","33.9191"]},{"facility_type":"Hospital","official_name":"Fontana Medical Center","address":{"street":"9961 Sierra Ave.","city":"Fontana","state":"CA","zip":"92335"},"url":"http:\/\/kp.org\/kpweb\/facilitydir\/facility.do?id=100127","loc":["-117.434","34.0728"]},{"facility_type":"Hospital","official_name":"Hi-Desert Medical Center","address":{"street":"6601 White Feather Road","city":"Joshua Tree","state":"CA","zip":"92252"},"url":"http:\/\/kp.org\/kpweb\/facilitydir\/facility.do?id=100131","loc":["-116.275","34.1307"]},{"facility_type":"Medical Office Building","official_name":"Ventura 2601 East Main Street Medical Offices","address":{"street":"2601 E. Main St.","city":"Ventura","state":"CA","zip":"93003"},"url":"http:\/\/kp.org\/kpweb\/facilitydir\/facility.do?id=100552","loc":["-119.261","34.2746"]},{"facility_type":"Medical Office Building","official_name":"Vandever Medical Offices","address":{"street":"4405 Vandever Ave.","city":"San Diego","state":"CA","zip":"92120"},"url":"http:\/\/kp.org\/kpweb\/facilitydir\/facility.do?id=100036","loc":["-117.1","32.7877"]},{"facility_type":"Medical Office Building","official_name":"San Juan Capistrano Medical Offices","address":{"street":"30400 Camino Capistrano","city":"San Juan Capistrano","state":"CA","zip":"92675"},"url":"http:\/\/kp.org\/kpweb\/facilitydir\/facility.do?id=100059","loc":["-117.668","33.5225"]},{"facility_type":"Medical Office Building","official_name":"San Marcos Outpatient Medical Center","address":{"street":"400 Craven Road","city":"San Marcos","state":"CA","zip":"92078"},"url":"http:\/\/kp.org\/kpweb\/facilitydir\/facility.do?id=100053","loc":["-117.17","33.1275"]},{"facility_type":"Medical Office Building","official_name":"Santa Ana Medical Offices","address":{"street":"1900 E. 4th St.","city":"Santa Ana","state":"CA","zip":"92705"},"url":"http:\/\/kp.org\/kpweb\/facilitydir\/facility.do?id=100040","loc":["-117.84","33.7476"]},{"facility_type":"Medical Office Building","official_name":"Santa Clarita Executive Plaza","address":{"street":"27201 Tourney Road","city":"Santa Clarita","state":"CA","zip":"91355"},"url":"http:\/\/kp.org\/kpweb\/facilitydir\/facility.do?id=100050","loc":["-118.577","34.417"]},{"facility_type":"Medical Office Building","official_name":"San Dimas Medical Offices","address":{"street":"1255 W. Arrow Highway","city":"San Dimas","state":"CA","zip":"91773"},"url":"http:\/\/kp.org\/kpweb\/facilitydir\/facility.do?id=100087","loc":["-117.831","34.1072"]},{"facility_type":"Medical Office Building","official_name":"San Diego Mission Road","address":{"street":"10990 San Diego Mission Road","city":"San Diego","state":"CA","zip":"92108"},"url":"http:\/\/kp.org\/kpweb\/facilitydir\/facility.do?id=100056","loc":["-117.106","32.7838"]},{"facility_type":"Medical Office Building","official_name":"Rosecrans Medical Offices","address":{"street":"9333 E. Rosecrans Ave.","city":"Bellflower","state":"CA","zip":"90706"},"url":"http:\/\/kp.org\/kpweb\/facilitydir\/facility.do?id=100061","loc":["-118.135","33.9041"]},{"facility_type":"Medical Office Building","official_name":"San Bernardino Medical Offices","address":{"street":"1717 E. Date Place","city":"San Bernardino","state":"CA","zip":"92404"},"url":"http:\/\/kp.org\/kpweb\/facilitydir\/facility.do?id=100060","loc":["-117.25","34.1405"]},{"facility_type":"Medical Office Building","official_name":"San Bernardino Mental Health Offices","address":{"street":"325 W. Hospitality Lane Suite 312","city":"San Bernardino","state":"CA","zip":"92408"},"url":"http:\/\/kp.org\/kpweb\/facilitydir\/facility.do?id=100066","loc":["-117.29","34.0652"]},{"facility_type":"Medical Office Building","official_name":"Santa Clarita Medical Offices","address":{"street":"27107 Tourney Rd.","city":"Santa Clarita","state":"CA","zip":"91355"},"url":"http:\/\/kp.org\/kpweb\/facilitydir\/facility.do?id=100051","loc":["-118.577","34.4157"]},{"facility_type":"Medical Office Building","official_name":"Scripps Medical Office","address":{"street":"9834 Genesee Ave., Suite 114","city":"San Diego","state":"CA","zip":"92037"},"url":"http:\/\/kp.org\/kpweb\/facilitydir\/facility.do?id=300462","loc":["-117.226","32.884"]},{"facility_type":"Medical Office Building","official_name":"Thousand Oaks 145 Hodencamp Road Medical Offices","address":{"street":"145 Hodencamp Road","city":"Thousand Oaks","state":"CA","zip":"91360"},"url":"http:\/\/kp.org\/kpweb\/facilitydir\/facility.do?id=100042","loc":["-118.869","34.1802"]},{"facility_type":"Medical Office Building","official_name":"Thousand Oaks 365 East Hillcrest Drive Medical Offices","address":{"street":"365 E. Hillcrest Drive","city":"Thousand Oaks","state":"CA","zip":"91360"},"url":"http:\/\/kp.org\/kpweb\/facilitydir\/facility.do?id=100041","loc":["-118.87","34.1818"]},{"facility_type":"Medical Office Building","official_name":"Torrance Medical Offices","address":{"street":"20790 Madrona Ave.","city":"Torrance","state":"CA","zip":"90503"},"url":"http:\/\/kp.org\/kpweb\/facilitydir\/facility.do?id=100052","loc":["-118.345","33.8415"]},{"facility_type":"Medical Office Building","official_name":"Upland Medical Offices","address":{"street":"1183 E. Foothill Blvd.","city":"Upland","state":"CA","zip":"91786"},"url":"http:\/\/kp.org\/kpweb\/facilitydir\/facility.do?id=300023","loc":["-117.636","34.1072"]},{"facility_type":"Medical Office Building","official_name":"Temecula Medical Offices","address":{"street":"27309 Madison Ave.","city":"Temecula","state":"CA","zip":"92590"},"url":"http:\/\/kp.org\/kpweb\/facilitydir\/facility.do?id=300020","loc":["-117.166","33.5241"]},{"facility_type":"Medical Office Building","official_name":"Stockdale Medical Offices","address":{"street":"3501 Stockdale Highway","city":"Bakersfield","state":"CA","zip":"93309"},"url":"http:\/\/kp.org\/kpweb\/facilitydir\/facility.do?id=100044","loc":["-119.042","35.3535"]},{"facility_type":"Medical Office Building","official_name":"Sherman Terrace Offices","address":{"street":"18040 Sherman Way","city":"Reseda","state":"CA","zip":"91335"},"url":"http:\/\/kp.org\/kpweb\/facilitydir\/facility.do?id=100048","loc":["-118.527","34.2008"]},{"facility_type":"Medical Office Building","official_name":"Simi Valley Medical Offices","address":{"street":"3900 Alamo St.","city":"Simi Valley","state":"CA","zip":"93063"},"url":"http:\/\/kp.org\/kpweb\/facilitydir\/facility.do?id=100047","loc":["-118.72","34.2862"]},{"facility_type":"Medical Office Building","official_name":"South Los Angeles Medical Offices","address":{"street":"1550 W. Manchester Ave.","city":"Los Angeles","state":"CA","zip":"90047"},"url":"http:\/\/kp.org\/kpweb\/facilitydir\/facility.do?id=300389","loc":["-118.304","33.9597"]},{"facility_type":"Hospital","official_name":"Palomar Medical Center","address":{"street":"555 East Valley Parkway","city":"Escondido","state":"CA","zip":"92025"},"url":"http:\/\/kp.org\/kpweb\/facilitydir\/facility.do?id=100072","loc":["-117.073","33.1254"]},{"facility_type":"Hospital","official_name":"Panorama City Medical Center","address":{"street":"13651 Willard Street","city":"Panorama City","state":"CA","zip":"91402"},"url":"http:\/\/kp.org\/kpweb\/facilitydir\/facility.do?id=100071","loc":["-118.43","34.2184"]},{"facility_type":"Other","official_name":"Novak Urgent Care","address":{"street":"80545 Highway 111","city":"Indio","state":"CA","zip":"92201"},"url":"http:\/\/kp.org\/kpweb\/facilitydir\/facility.do?id=300018","loc":["-116.251","33.7074"]},{"facility_type":"Other","official_name":"VIP Urgent Care Center","address":{"street":"72-630 Fred Waring Drive, Suite 101","city":"Palm Desert","state":"CA","zip":"92260"},"url":"http:\/\/kp.org\/kpweb\/facilitydir\/facility.do?id=100010","loc":["-116.383","33.7289"]},{"facility_type":"Other","official_name":"Bakersfield Administrative Offices","address":{"street":"5055 California Ave.","city":"Bakersfield","state":"CA","zip":"93309"},"url":"http:\/\/kp.org\/kpweb\/facilitydir\/facility.do?id=100170","loc":["-119.059","35.3612"]},{"facility_type":"Other","official_name":"Balboa Plaza Administrative Offices","address":{"street":"10605 Balboa Blvd., Suite 330","city":"Granada Hills","state":"CA","zip":"91344"},"url":"http:\/\/kp.org\/kpweb\/facilitydir\/facility.do?id=100166","loc":["-118.503","34.2629"]},{"facility_type":"Other","official_name":"Healthcare Express Urgent Care","address":{"street":"42575 Washington Street","city":"Palm Desert","state":"CA","zip":"92211"},"url":"http:\/\/kp.org\/kpweb\/facilitydir\/facility.do?id=300024","loc":["-116.304","33.7399"]},{"facility_type":"Other","official_name":"Avalon Urgent Care Center","address":{"street":"58471 29 Palms Highway, Suite 303","city":"Yucca Valley","state":"CA","zip":"92284"},"url":"http:\/\/kp.org\/kpweb\/facilitydir\/facility.do?id=100019","loc":["-116.472","34.1124"]},{"facility_type":"Pharmacy","official_name":"Walgreens Pharmacy","address":{"street":"14001 Palm Drive","city":"Desert Hot Springs","state":"CA","zip":"92240"},"url":"http:\/\/kp.org\/kpweb\/facilitydir\/facility.do?id=100551","loc":["-116.502","33.9464"]},{"facility_type":"Pharmacy","official_name":"Walgreens Pharmacy","address":{"street":"42010 Washington St.","city":"Indio","state":"CA","zip":"92201"},"url":"http:\/\/kp.org\/kpweb\/facilitydir\/facility.do?id=100545","loc":["-116.304","33.743"]},{"facility_type":"Pharmacy","official_name":"Walgreens Pharmacy, Oxnard","address":{"street":"2303 N. Vineyard Ave.","city":"Oxnard","state":"CA","zip":"93030"},"url":"http:\/\/kp.org\/kpweb\/facilitydir\/facility.do?id=300093","loc":["-119.176","34.2274"]},{"facility_type":"Other","official_name":"Blood Donor Center","address":{"street":"6511 Mission Gorge Rd.","city":"San Diego","state":"CA","zip":"92120"},"url":"http:\/\/kp.org\/kpweb\/facilitydir\/facility.do?id=100058","loc":["-117.098","32.7911"]},{"facility_type":"Other","official_name":"East Street Offices","address":{"street":"1011 S. East St.","city":"Anaheim","state":"CA","zip":"92805"},"url":"http:\/\/kp.org\/kpweb\/facilitydir\/facility.do?id=100550","loc":["-117.897","33.822"]},{"facility_type":"Other","official_name":"Vision Essentials by Kaiser Permanente, Inglewood","address":{"street":"3451 W Century Blvd., Suite B-3","city":"Inglewood","state":"CA","zip":"90303"},"url":"http:\/\/kp.org\/kpweb\/facilitydir\/facility.do?id=100114","loc":["-118.332","33.9457"]},{"facility_type":"Other","official_name":"Vision Essentials by Kaiser Permanente, La Cienega","address":{"street":"1843 1\/2 La Cienega Blvd.","city":"Los Angeles","state":"CA","zip":"90035"},"url":"http:\/\/kp.org\/kpweb\/facilitydir\/facility.do?id=300296","loc":["-118.377","34.0435"]},{"facility_type":"Other","official_name":"Vision Essentials by Kaiser Permanente, Pasadena","address":{"street":"1055 E. Colorado Blvd., Suite 100","city":"Pasadena","state":"CA","zip":"91106"},"url":"http:\/\/kp.org\/kpweb\/facilitydir\/facility.do?id=100082","loc":["-118.129","34.1464"]},{"facility_type":"Other","official_name":"Xerox Centre","address":{"street":"1851 E. First St.","city":"Santa Ana","state":"CA","zip":"92705"},"url":"http:\/\/kp.org\/kpweb\/facilitydir\/facility.do?id=100547","loc":["-117.841","33.7457"]},{"facility_type":"Other","official_name":"Van Buren Offices","address":{"street":"3951 Van Buren Blvd.","city":"Riverside","state":"CA","zip":"92503"},"url":"http:\/\/kp.org\/kpweb\/facilitydir\/facility.do?id=100037","loc":["-117.448","33.9228"]},{"facility_type":"Other","official_name":"Tustin Executive Center","address":{"street":"17542 E. 17th St.","city":"Tustin","state":"CA","zip":"92780"},"url":"http:\/\/kp.org\/kpweb\/facilitydir\/facility.do?id=300208","loc":["-117.826","33.7588"]},{"facility_type":"Other","official_name":"Kaiser Permanente Member Services","address":{"street":"73733 Fred Waring Dr., Suite 110","city":"Palm Desert","state":"CA","zip":"92260"},"url":"http:\/\/kp.org\/kpweb\/facilitydir\/facility.do?id=300388","loc":["-116.379","33.7287"]},{"facility_type":"Other","official_name":"Montclair Mental Health Offices","address":{"street":"5330 San Bernardino St.","city":"Montclair","state":"CA","zip":"91763"},"url":"http:\/\/kp.org\/kpweb\/facilitydir\/facility.do?id=100089","loc":["-117.689","34.0778"]},{"facility_type":"Other","official_name":"Palm Desert Urgent Care Center","address":{"street":"73345 Highway 111, Suite 101","city":"Palm Desert","state":"CA","zip":"92260"},"url":"http:\/\/kp.org\/kpweb\/facilitydir\/facility.do?id=100011","loc":["-116.385","33.7208"]},{"facility_type":"Pharmacy","official_name":"Rite Aid Pharmacy, Ventura","address":{"street":"131 W. Main St.","city":"Ventura","state":"CA","zip":"93001"},"url":"http:\/\/kp.org\/kpweb\/facilitydir\/facility.do?id=300092","loc":["-119.303","34.2822"]},{"facility_type":"Pharmacy","official_name":"Rite Aid Pharmacy, Santa Paula","address":{"street":"221 E. Harvard Blvd.","city":"Santa Paula","state":"CA","zip":"93060"},"url":"http:\/\/kp.org\/kpweb\/facilitydir\/facility.do?id=100548","loc":["-119.069","34.3476"]},{"facility_type":"Hospital","official_name":"St. Bernardine Medical Center - Kaiser Permanente Participating Hospital","address":{"street":"2101 N. Waterman Avenue","city":"San Bernardino","state":"CA","zip":"92404"},"url":"http:\/\/kp.org\/kpweb\/facilitydir\/facility.do?id=100005","loc":["-117.276","34.1349"]},{"facility_type":"Hospital","official_name":"West Los Angeles Medical Center","address":{"street":"6041 Cadillac Ave.","city":"Los Angeles","state":"CA","zip":"90034"},"url":"http:\/\/kp.org\/kpweb\/facilitydir\/facility.do?id=100028","loc":["-118.376","34.0381"]},{"facility_type":"Hospital","official_name":"Woodland Hills Medical Center","address":{"street":"5601 De Soto Ave.","city":"Woodland Hills","state":"CA","zip":"91365"},"url":"http:\/\/kp.org\/kpweb\/facilitydir\/facility.do?id=100045","loc":["-118.59","34.171"]},{"facility_type":"Pharmacy","official_name":"CVS Pharmacy","address":{"street":"31575 Date Palm Drive","city":"Cathedral City","state":"CA","zip":"92234"},"url":"http:\/\/kp.org\/kpweb\/facilitydir\/facility.do?id=100554","loc":["-116.459","33.819"]},{"facility_type":"Hospital","official_name":"South Bay Medical Center","address":{"street":"25825 Vermont Ave.","city":"Harbor City","state":"CA","zip":"90710"},"url":"http:\/\/kp.org\/kpweb\/facilitydir\/facility.do?id=100049","loc":["-118.294","33.789"]},{"facility_type":"Hospital","official_name":"San Joaquin Community Hospital","address":{"street":"2615 Chester Ave.","city":"Bakersfield","state":"CA","zip":"93301"},"url":"http:\/\/kp.org\/kpweb\/facilitydir\/facility.do?id=300022","loc":["-119.019","35.3833"]},{"facility_type":"Hospital","official_name":"Rancho Springs Medical Center","address":{"street":"25500 Medical Center Drive","city":"Murrieta","state":"CA","zip":"92562"},"url":"http:\/\/kp.org\/kpweb\/facilitydir\/facility.do?id=100540","loc":["-117.183","33.5588"]},{"facility_type":"Hospital","official_name":"Riverside Medical Center","address":{"street":"10800 Magnolia Ave.","city":"Riverside","state":"CA","zip":"92505"},"url":"http:\/\/kp.org\/kpweb\/facilitydir\/facility.do?id=100062","loc":["-117.469","33.9074"]},{"facility_type":"Hospital","official_name":"San Diego Medical Center\/Kaiser Foundation Hospital","address":{"street":"4647 Zion Ave.","city":"San Diego","state":"CA","zip":"92120"},"url":"http:\/\/kp.org\/kpweb\/facilitydir\/facility.do?id=100084","loc":["-117.095","32.7919"]},{"facility_type":"Pharmacy","official_name":"CVS Pharmacy, Camarillo","address":{"street":"5259 Mission Oaks Blvd.","city":"Camarillo","state":"CA","zip":"93010"},"url":"http:\/\/kp.org\/kpweb\/facilitydir\/facility.do?id=300094","loc":["-118.999","34.2292"]},{"facility_type":"Pharmacy","official_name":"Kaiser Permanente Camarillo Pharmacy","address":{"street":"309 W. Ventura Blvd. Suite B","city":"Camarillo","state":"CA","zip":"93010"},"url":"http:\/\/kp.org\/kpweb\/facilitydir\/facility.do?id=100544","loc":["-119.075","34.2176"]},{"facility_type":"Pharmacy","official_name":"Rite Aid Pharmacy","address":{"street":"57646 Twentynine Palms Highway","city":"Yucca Valley","state":"CA","zip":"92284"},"url":"http:\/\/kp.org\/kpweb\/facilitydir\/facility.do?id=100023","loc":["-116.406","34.1259"]},{"facility_type":"Pharmacy","official_name":"Rite Aid Pharmacy","address":{"street":"51101 Harrison St.","city":"Coachella","state":"CA","zip":"92236"},"url":"http:\/\/kp.org\/kpweb\/facilitydir\/facility.do?id=100542","loc":["-116.182","33.6777"]},{"facility_type":"Pharmacy","official_name":"Rite Aid Pharmacy, Camarillo","address":{"street":"2550 Las Posas Road","city":"Camarillo","state":"CA","zip":"93010"},"url":"http:\/\/kp.org\/kpweb\/facilitydir\/facility.do?id=300095","loc":["-119.035","34.236"]},{"facility_type":"Pharmacy","official_name":"Rite Aid Pharmacy, Fillmore","address":{"street":"600 Ventura St.","city":"Fillmore","state":"CA","zip":"93015"},"url":"http:\/\/kp.org\/kpweb\/facilitydir\/facility.do?id=300096","loc":["-118.915","34.3952"]},{"facility_type":"Pharmacy","official_name":"Rite Aid Pharmacy","address":{"street":"71717 Twentynine Palms Highway","city":"Twentynine Palms","state":"CA","zip":"92277"},"url":"http:\/\/kp.org\/kpweb\/facilitydir\/facility.do?id=100046","loc":["-116.098","34.1354"]},{"facility_type":"Pharmacy","official_name":"Northridge Pharmacy","address":{"street":"19300 Rinaldi St., Suite I","city":"Northridge","state":"CA","zip":"91326"},"url":"http:\/\/kp.org\/kpweb\/facilitydir\/facility.do?id=100086","loc":["-118.554","34.2739"]},{"facility_type":"Pharmacy","official_name":"Kaiser Permanente Oxnard Pharmacy","address":{"street":"2200 E. Gonzales Road","city":"Oxnard","state":"CA","zip":"93036"},"url":"http:\/\/kp.org\/kpweb\/facilitydir\/facility.do?id=100077","loc":["-119.149","34.2187"]},{"facility_type":"Pharmacy","official_name":"Kaiser Permanente Pharmacy","address":{"street":"1717 E. Vista Chino, Suite B-2","city":"Palm Springs","state":"CA","zip":"92262"},"url":"http:\/\/kp.org\/kpweb\/facilitydir\/facility.do?id=100074","loc":["-116.526","33.8445"]},{"facility_type":"Pharmacy","official_name":"Kaiser Permanente Pharmacy","address":{"street":"75-036 Gerald Ford Drive","city":"Palm Desert","state":"CA","zip":"92211"},"url":"http:\/\/kp.org\/kpweb\/facilitydir\/facility.do?id=100623","loc":["-116.36","33.7828"]},{"facility_type":"Medical Office Building","official_name":"Rehabilitation Pavilion","address":{"street":"4201 W. Chapman Ave.","city":"Orange","state":"CA","zip":"92868"},"url":"http:\/\/kp.org\/kpweb\/facilitydir\/facility.do?id=100080","loc":["-117.899","33.7892"]},{"facility_type":"Medical Office Building","official_name":"Redlands Medical Offices","address":{"street":"1301 California St.","city":"Redlands","state":"CA","zip":"92374"},"url":"http:\/\/kp.org\/kpweb\/facilitydir\/facility.do?id=300021","loc":["-117.226","34.0677"]},{"facility_type":"Medical Office Building","official_name":"East Hills Medical Offices","address":{"street":"3700 Mall View Road","city":"Bakersfield","state":"CA","zip":"93306"},"url":"http:\/\/kp.org\/kpweb\/facilitydir\/facility.do?id=100137","loc":["-118.952","35.3951"]},{"facility_type":"Medical Office Building","official_name":"East Los Angeles Medical Offices","address":{"street":"5119 Pomona Blvd.","city":"Los Angeles","state":"CA","zip":"90022"},"url":"http:\/\/kp.org\/kpweb\/facilitydir\/facility.do?id=100136","loc":["-118.155","34.0336"]},{"facility_type":"Medical Office Building","official_name":"El Cajon Medical Offices","address":{"street":"250 Travelodge Drive","city":"El Cajon","state":"CA","zip":"92020"},"url":"http:\/\/kp.org\/kpweb\/facilitydir\/facility.do?id=100133","loc":["-116.982","32.7938"]},{"facility_type":"Medical Office Building","official_name":"Erwin Street Medical Offices","address":{"street":"21263 Erwin St.","city":"Woodland Hills","state":"CA","zip":"91364"},"url":"http:\/\/kp.org\/kpweb\/facilitydir\/facility.do?id=100134","loc":["-118.595","34.1829"]},{"facility_type":"Medical Office Building","official_name":"Discovery Plaza Medical and Administrative Offices","address":{"street":"1200 Discovery Drive","city":"Bakersfield","state":"CA","zip":"93309"},"url":"http:\/\/kp.org\/kpweb\/facilitydir\/facility.do?id=100138","loc":["-119.059","35.3644"]},{"facility_type":"Medical Office Building","official_name":"Diamond Bar Medical Offices","address":{"street":"1336 Bridgegate Dr.","city":"Diamond Bar","state":"CA","zip":"91765"},"url":"http:\/\/kp.org\/kpweb\/facilitydir\/facility.do?id=100621","loc":["-117.836","33.997"]},{"facility_type":"Medical Office Building","official_name":"Crossroads Medical Offices","address":{"street":"12801 Crossroads Pkwy. South, Suite 100 West Entrance","city":"City of Industry","state":"CA","zip":"91746"},"url":"http:\/\/kp.org\/kpweb\/facilitydir\/facility.do?id=300034","loc":["-117.989","34.0541"]},{"facility_type":"Medical Office Building","official_name":"Cudahy Medical Offices","address":{"street":"7825 Atlantic Ave.","city":"Cudahy","state":"CA","zip":"90201"},"url":"http:\/\/kp.org\/kpweb\/facilitydir\/facility.do?id=100146","loc":["-118.187","33.9642"]},{"facility_type":"Medical Office Building","official_name":"Culver Marina Medical Offices","address":{"street":"12001 W. Washington Blvd.","city":"Los Angeles","state":"CA","zip":"90066"},"url":"http:\/\/kp.org\/kpweb\/facilitydir\/facility.do?id=100144","loc":["-118.423","33.9978"]},{"facility_type":"Medical Office Building","official_name":"Escondido Medical Offices","address":{"street":"732 N. Broadway","city":"Escondido","state":"CA","zip":"92025"},"url":"http:\/\/kp.org\/kpweb\/facilitydir\/facility.do?id=100130","loc":["-117.084","33.1302"]},{"facility_type":"Medical Office Building","official_name":"Euclid Medical Offices","address":{"street":"1188 N. Euclid St.","city":"Anaheim","state":"CA","zip":"92801"},"url":"http:\/\/kp.org\/kpweb\/facilitydir\/facility.do?id=100128","loc":["-117.94","33.8503"]},{"facility_type":"Medical Office Building","official_name":"Glendale Medical Offices","address":{"street":"444 W. Glenoaks Blvd.","city":"Glendale","state":"CA","zip":"91202"},"url":"http:\/\/kp.org\/kpweb\/facilitydir\/facility.do?id=100123","loc":["-118.263","34.1597"]},{"facility_type":"Medical Office Building","official_name":"Harbor Corporate Park","address":{"street":"3601 S. Harbor Blvd.","city":"Santa Ana","state":"CA","zip":"92704"},"url":"http:\/\/kp.org\/kpweb\/facilitydir\/facility.do?id=100625","loc":["-117.919","33.699"]},{"facility_type":"Medical Office Building","official_name":"Harbor-MacArthur Medical Offices","address":{"street":"3401 S. Harbor Blvd.","city":"Santa Ana","state":"CA","zip":"92704"},"url":"http:\/\/kp.org\/kpweb\/facilitydir\/facility.do?id=100122","loc":["-117.918","33.7012"]},{"facility_type":"Medical Office Building","official_name":"Health Education and Psychiatry Offices","address":{"street":"5105 W. Goldleaf Circle","city":"Los Angeles","state":"CA","zip":"90056"},"url":"http:\/\/kp.org\/kpweb\/facilitydir\/facility.do?id=100111","loc":["-118.365","33.9895"]},{"facility_type":"Medical Office Building","official_name":"Garfield Specialty Center","address":{"street":"5893 Copley Dr.","city":"San Diego","state":"CA","zip":"92111"},"url":"http:\/\/kp.org\/kpweb\/facilitydir\/facility.do?id=300303","loc":["-117.173","32.845"]},{"facility_type":"Medical Office Building","official_name":"Gardena Medical Offices","address":{"street":"15446 S. Western Ave.","city":"Gardena","state":"CA","zip":"90249"},"url":"http:\/\/kp.org\/kpweb\/facilitydir\/facility.do?id=100124","loc":["-118.309","33.8905"]},{"facility_type":"Medical Office Building","official_name":"Fontana Mental Health Offices","address":{"street":"9310 Sierra Ave.","city":"Fontana","state":"CA","zip":"92335"},"url":"http:\/\/kp.org\/kpweb\/facilitydir\/facility.do?id=100126","loc":["-117.436","34.0846"]},{"facility_type":"Medical Office Building","official_name":"Garden Grove Medical Offices","address":{"street":"12100 Euclid St.","city":"Garden Grove","state":"CA","zip":"92840"},"url":"http:\/\/kp.org\/kpweb\/facilitydir\/facility.do?id=100129","loc":["-117.941","33.7865"]},{"facility_type":"Medical Office Building","official_name":"Garden Medical Offices","address":{"street":"9353 Imperial Highway","city":"Downey","state":"CA","zip":"90242"},"url":"http:\/\/kp.org\/kpweb\/facilitydir\/facility.do?id=100021","loc":["-118.128","33.9172"]},{"facility_type":"Medical Office Building","official_name":"Corona Medical Offices","address":{"street":"2055 Kellogg Ave.","city":"Corona","state":"CA","zip":"92879"},"url":"http:\/\/kp.org\/kpweb\/facilitydir\/facility.do?id=100147","loc":["-117.555","33.8564"]},{"facility_type":"Medical Office Building","official_name":"Colton Medical Offices","address":{"street":"789 E. Cooley Drive","city":"Colton","state":"CA","zip":"92324"},"url":"http:\/\/kp.org\/kpweb\/facilitydir\/facility.do?id=100148","loc":["-117.31","34.0546"]},{"facility_type":"Medical Office Building","official_name":"Bellflower Medical Offices","address":{"street":"9400 E. Rosecrans Ave.","city":"Bellflower","state":"CA","zip":"90706"},"url":"http:\/\/kp.org\/kpweb\/facilitydir\/facility.do?id=100165","loc":["-118.133","33.9026"]},{"facility_type":"Medical Office Building","official_name":"Bernardo Medical Office","address":{"street":"17140 Bernardo Center Drive","city":"San Diego","state":"CA","zip":"92128"},"url":"http:\/\/kp.org\/kpweb\/facilitydir\/facility.do?id=100094","loc":["-117.076","33.0253"]},{"facility_type":"Medical Office Building","official_name":"Bonita Medical Offices","address":{"street":"3955 Bonita Rd.","city":"Bonita","state":"CA","zip":"91902"},"url":"http:\/\/kp.org\/kpweb\/facilitydir\/facility.do?id=100163","loc":["-117.043","32.658"]},{"facility_type":"Medical Office Building","official_name":"Bostonia Medical Offices","address":{"street":"1630 E. Main St.","city":"El Cajon","state":"CA","zip":"92021"},"url":"http:\/\/kp.org\/kpweb\/facilitydir\/facility.do?id=100161","loc":["-116.923","32.8087"]},{"facility_type":"Medical Office Building","official_name":"Behavioral Health Offices","address":{"street":"4900 California Ave. Tower A, Suite 200","city":"Bakersfield","state":"CA","zip":"93309"},"url":"http:\/\/kp.org\/kpweb\/facilitydir\/facility.do?id=100176","loc":["-119.061","35.364"]},{"facility_type":"Medical Office Building","official_name":"Behavioral Health and Nephrology Offices","address":{"street":"44444 20th St. West","city":"Lancaster","state":"CA","zip":"93534"},"url":"http:\/\/kp.org\/kpweb\/facilitydir\/facility.do?id=100175","loc":["-118.165","34.6906"]},{"facility_type":"Medical Office Building","official_name":"Anaheim Hills Medical Offices","address":{"street":"5475 E. La Palma Ave. Suite 201","city":"Anaheim","state":"CA","zip":"92807"},"url":"http:\/\/kp.org\/kpweb\/facilitydir\/facility.do?id=100078","loc":["-117.796","33.8604"]},{"facility_type":"Medical Office Building","official_name":"Anaheim Kraemer Medical Office Building 1","address":{"street":"3460 E. La Palma Ave.","city":"Anaheim","state":"CA","zip":"92806"},"url":"http:\/\/kp.org\/kpweb\/facilitydir\/facility.do?id=300026","loc":["-117.845","33.8543"]},{"facility_type":"Medical Office Building","official_name":"Barranca Medical Offices","address":{"street":"6 Willard","city":"Irvine","state":"CA","zip":"92604"},"url":"http:\/\/kp.org\/kpweb\/facilitydir\/facility.do?id=100113","loc":["-117.789","33.675"]},{"facility_type":"Medical Office Building","official_name":"Brea Medical Offices","address":{"street":"1900 E. Lambert Road","city":"Brea","state":"CA","zip":"92821"},"url":"http:\/\/kp.org\/kpweb\/facilitydir\/facility.do?id=100160","loc":["-117.876","33.9245"]},{"facility_type":"Medical Office Building","official_name":"Camarillo 2620 Las Posas Road Medical Offices","address":{"street":"2620 E. Las Posas Road","city":"Camarillo","state":"CA","zip":"93010"},"url":"http:\/\/kp.org\/kpweb\/facilitydir\/facility.do?id=100541","loc":["-119.036","34.2371"]},{"facility_type":"Medical Office Building","official_name":"Chester Avenue Medical Offices","address":{"street":"2531 Chester Avenue","city":"Bakersfield","state":"CA","zip":"93301"},"url":"http:\/\/kp.org\/kpweb\/facilitydir\/facility.do?id=300297","loc":["-119.019","35.3826"]},{"facility_type":"Medical Office Building","official_name":"Chino Medical Offices","address":{"street":"11911 Central Ave.","city":"Chino","state":"CA","zip":"91710"},"url":"http:\/\/kp.org\/kpweb\/facilitydir\/facility.do?id=100151","loc":["-117.689","34.0368"]},{"facility_type":"Medical Office Building","official_name":"Clairemont Mesa Medical Offices","address":{"street":"7060 Clairemont Mesa Blvd.","city":"San Diego","state":"CA","zip":"92111"},"url":"http:\/\/kp.org\/kpweb\/facilitydir\/facility.do?id=100150","loc":["-117.166","32.8328"]},{"facility_type":"Medical Office Building","official_name":"Coffee Road Medical Offices","address":{"street":"4801 Coffee Road","city":"Bakersfield","state":"CA","zip":"93308"},"url":"http:\/\/kp.org\/kpweb\/facilitydir\/facility.do?id=100025","loc":["-119.093","35.4031"]},{"facility_type":"Medical Office Building","official_name":"Central Medical Offices","address":{"street":"3733 San Dimas St.","city":"Bakersfield","state":"CA","zip":"93301"},"url":"http:\/\/kp.org\/kpweb\/facilitydir\/facility.do?id=100153","loc":["-119.009","35.3936"]},{"facility_type":"Medical Office Building","official_name":"Carson Medical Offices","address":{"street":"23621 Main Street","city":"Carson","state":"CA","zip":"90745"},"url":"http:\/\/kp.org\/kpweb\/facilitydir\/facility.do?id=100152","loc":["-118.276","33.8106"]},{"facility_type":"Medical Office Building","official_name":"Canyon Country Medical Offices","address":{"street":"26415 Carl Boyer Drive","city":"Santa Clarita","state":"CA","zip":"91350"},"url":"http:\/\/kp.org\/kpweb\/facilitydir\/facility.do?id=300016","loc":["-118.504","34.4127"]},{"facility_type":"Medical Office Building","official_name":"Canyon Crest Mental Health Offices","address":{"street":"5225 Canyon Crest Drive Building 100, Suite 103","city":"Riverside","state":"CA","zip":"92507"},"url":"http:\/\/kp.org\/kpweb\/facilitydir\/facility.do?id=100156","loc":["-117.33","33.9563"]},{"facility_type":"Medical Office Building","official_name":"Carlsbad Medical Offices","address":{"street":"6860 Avenida Encinas","city":"Carlsbad","state":"CA","zip":"92009"},"url":"http:\/\/kp.org\/kpweb\/facilitydir\/facility.do?id=100154","loc":["-117.315","33.1072"]},{"facility_type":"Medical Office Building","official_name":"Health Pavilion","address":{"street":"200 N. Lewis St.","city":"Orange","state":"CA","zip":"92868"},"url":"http:\/\/kp.org\/kpweb\/facilitydir\/facility.do?id=100081","loc":["-117.897","33.7898"]},{"facility_type":"Medical Office Building","official_name":"High Desert Medical Offices","address":{"street":"14011 Park Ave.","city":"Victorville","state":"CA","zip":"92392"},"url":"http:\/\/kp.org\/kpweb\/facilitydir\/facility.do?id=100125","loc":["-117.327","34.5058"]},{"facility_type":"Medical Office Building","official_name":"Ontario Vineyard Medical Offices","address":{"street":"2295 S. Vineyard Ave.","city":"Ontario","state":"CA","zip":"91761"},"url":"http:\/\/kp.org\/kpweb\/facilitydir\/facility.do?id=100024","loc":["-117.609","34.0325"]},{"facility_type":"Medical Office Building","official_name":"Orchard Medical Offices","address":{"street":"9449 Imperial Highway","city":"Downey","state":"CA","zip":"90242"},"url":"http:\/\/kp.org\/kpweb\/facilitydir\/facility.do?id=100016","loc":["-118.126","33.9172"]},{"facility_type":"Medical Office Building","official_name":"Otay Mesa Outpatient Medical Center","address":{"street":"4650 Palm Ave.","city":"San Diego","state":"CA","zip":"92154"},"url":"http:\/\/kp.org\/kpweb\/facilitydir\/facility.do?id=100079","loc":["-117.034","32.5851"]},{"facility_type":"Medical Office Building","official_name":"Oxnard 2103 East Gonzales Road Medical Offices","address":{"street":"2103 E. Gonzales Road","city":"Oxnard","state":"CA","zip":"93036"},"url":"http:\/\/kp.org\/kpweb\/facilitydir\/facility.do?id=100549","loc":["-119.151","34.2194"]},{"facility_type":"Medical Office Building","official_name":"Ontario Mental Health Offices","address":{"street":"3330 Centre Lake Drive","city":"Ontario","state":"CA","zip":"91761"},"url":"http:\/\/kp.org\/kpweb\/facilitydir\/facility.do?id=100020","loc":["-117.581","34.0669"]},{"facility_type":"Medical Office Building","official_name":"Ontario Medical Center","address":{"street":"2295 S. Vineyard Ave","city":"Ontario","state":"CA","zip":"91761"},"url":"http:\/\/kp.org\/kpweb\/facilitydir\/facility.do?id=300511","loc":["-117.609","34.0325"]},{"facility_type":"Medical Office Building","official_name":"Moreno Valley Iris Medical Offices","address":{"street":"27350 Iris Avenue","city":"Moreno Valley","state":"CA","zip":"92555"},"url":"http:\/\/kp.org\/kpweb\/facilitydir\/facility.do?id=300475","loc":["-117.186","33.8948"]},{"facility_type":"Medical Office Building","official_name":"Norwalk Medical Offices","address":{"street":"12501 E. Imperial Hwy., Suite 400","city":"Norwalk","state":"CA","zip":"90650"},"url":"http:\/\/kp.org\/kpweb\/facilitydir\/facility.do?id=300294","loc":["-118.066","33.9177"]},{"facility_type":"Medical Office Building","official_name":"Oceanside Medical Offices","address":{"street":"3609 Ocean Ranch Blvd, Suite 104","city":"Oceanside","state":"CA","zip":"92056"},"url":"http:\/\/kp.org\/kpweb\/facilitydir\/facility.do?id=100577","loc":["-117.313","33.2096"]},{"facility_type":"Medical Office Building","official_name":"Oxnard 2200 East Gonzales Road Medical Offices","address":{"street":"2200 E. Gonzalez Rd","city":"Oxnard","state":"CA","zip":"93036"},"url":"http:\/\/kp.org\/kpweb\/facilitydir\/facility.do?id=100553","loc":["-119.149","34.2187"]},{"facility_type":"Medical Office Building","official_name":"Palm Desert Medical Offices","address":{"street":"University Park Centre 75-036 Gerald Ford Drive","city":"Palm Desert","state":"CA","zip":"92211"},"url":"http:\/\/kp.org\/kpweb\/facilitydir\/facility.do?id=100057","loc":["-116.36","33.7828"]},{"facility_type":"Medical Office Building","official_name":"Polk Street Offices","address":{"street":"10689 Magnolia Ave.","city":"Riverside","state":"CA","zip":"92505"},"url":"http:\/\/kp.org\/kpweb\/facilitydir\/facility.do?id=100067","loc":["-117.469","33.9083"]},{"facility_type":"Medical Office Building","official_name":"Positive Choice Wellness Center","address":{"street":"7035 Convoy Court","city":"San Diego","state":"CA","zip":"92111"},"url":"http:\/\/kp.org\/kpweb\/facilitydir\/facility.do?id=100065","loc":["-117.165","32.8346"]},{"facility_type":"Medical Office Building","official_name":"Rancho Cucamonga Medical Offices","address":{"street":"10850 Arrow Route","city":"Rancho Cucamonga","state":"CA","zip":"91730"},"url":"http:\/\/kp.org\/kpweb\/facilitydir\/facility.do?id=100064","loc":["-117.568","34.0991"]},{"facility_type":"Medical Office Building","official_name":"Rancho San Diego Medical Offices","address":{"street":"3875 Avocado Blvd.","city":"La Mesa","state":"CA","zip":"91941"},"url":"http:\/\/kp.org\/kpweb\/facilitydir\/facility.do?id=100063","loc":["-116.962","32.7497"]},{"facility_type":"Medical Office Building","official_name":"Point Loma Medical Offices","address":{"street":"3250 Fordham St.","city":"San Diego","state":"CA","zip":"92110"},"url":"http:\/\/kp.org\/kpweb\/facilitydir\/facility.do?id=100093","loc":["-117.214","32.75"]},{"facility_type":"Medical Office Building","official_name":"Playa Vista Medical Offices","address":{"street":"5620 Mesmer Ave.","city":"Culver City","state":"CA","zip":"90230"},"url":"http:\/\/kp.org\/kpweb\/facilitydir\/facility.do?id=100068","loc":["-118.4","33.9858"]},{"facility_type":"Medical Office Building","official_name":"Palm Springs Medical Offices","address":{"street":"1100 N. Palm Canyon Drive, Suite 208","city":"Palm Springs","state":"CA","zip":"92262"},"url":"http:\/\/kp.org\/kpweb\/facilitydir\/facility.do?id=100022","loc":["-116.546","33.8383"]},{"facility_type":"Medical Office Building","official_name":"Palmdale Medical Offices","address":{"street":"4502 E. Avenue S","city":"Palmdale","state":"CA","zip":"93552"},"url":"http:\/\/kp.org\/kpweb\/facilitydir\/facility.do?id=100073","loc":["-118.05","34.5579"]},{"facility_type":"Medical Office Building","official_name":"Pasadena Medical Offices","address":{"street":"3280 E. Foothill Blvd.","city":"Pasadena","state":"CA","zip":"91107"},"url":"http:\/\/kp.org\/kpweb\/facilitydir\/facility.do?id=100070","loc":["-118.083","34.1499"]},{"facility_type":"Medical Office Building","official_name":"Moreno Valley Heacock Medical Offices","address":{"street":"12815 Heacock St.","city":"Moreno Valley","state":"CA","zip":"92553"},"url":"http:\/\/kp.org\/kpweb\/facilitydir\/facility.do?id=100088","loc":["-117.245","33.9348"]},{"facility_type":"Medical Office Building","official_name":"Montebello Medical Offices","address":{"street":"1550 Town Center Drive","city":"Montebello","state":"CA","zip":"90640"},"url":"http:\/\/kp.org\/kpweb\/facilitydir\/facility.do?id=100100","loc":["-118.089","34.0361"]},{"facility_type":"Medical Office Building","official_name":"Kaiser Permanente Kearny Mesa Rehabilitation Center","address":{"street":"4510 Viewridge Ave.","city":"San Diego","state":"CA","zip":"92123"},"url":"http:\/\/kp.org\/kpweb\/facilitydir\/facility.do?id=100017","loc":["-117.126","32.8228"]},{"facility_type":"Medical Office Building","official_name":"La Mesa Medical Offices","address":{"street":"8080 Parkway Drive","city":"La Mesa","state":"CA","zip":"91942"},"url":"http:\/\/kp.org\/kpweb\/facilitydir\/facility.do?id=100142","loc":["-117.025","32.7757"]},{"facility_type":"Medical Office Building","official_name":"La Palma Medical Offices","address":{"street":"5 Centerpointe Drive","city":"La Palma","state":"CA","zip":"90623"},"url":"http:\/\/kp.org\/kpweb\/facilitydir\/facility.do?id=100108","loc":["-118.03","33.8616"]},{"facility_type":"Medical Office Building","official_name":"Lakeview Medical Offices","address":{"street":"411 N. Lakeview Ave.","city":"Anaheim","state":"CA","zip":"92807"},"url":"http:\/\/kp.org\/kpweb\/facilitydir\/facility.do?id=100106","loc":["-117.816","33.8538"]},{"facility_type":"Medical Office Building","official_name":"Inglewood Medical Offices","address":{"street":"110 N. La Brea Ave.","city":"Inglewood","state":"CA","zip":"90301"},"url":"http:\/\/kp.org\/kpweb\/facilitydir\/facility.do?id=100115","loc":["-118.353","33.9635"]},{"facility_type":"Medical Office Building","official_name":"Indio Medical Offices","address":{"street":"46-900 E. Monroe Street","city":"Indio","state":"CA","zip":"92201"},"url":"http:\/\/kp.org\/kpweb\/facilitydir\/facility.do?id=100031","loc":["-116.234","33.7047"]},{"facility_type":"Medical Office Building","official_name":"Huntington Beach Medical Offices","address":{"street":"18081 Beach Blvd.","city":"Huntington Beach","state":"CA","zip":"92648"},"url":"http:\/\/kp.org\/kpweb\/facilitydir\/facility.do?id=100120","loc":["-117.989","33.7001"]},{"facility_type":"Medical Office Building","official_name":"Imperial Satellite Offices","address":{"street":"12200 Bellflower Blvd.","city":"Downey","state":"CA","zip":"90242"},"url":"http:\/\/kp.org\/kpweb\/facilitydir\/facility.do?id=100117","loc":["-118.124","33.9225"]},{"facility_type":"Medical Office Building","official_name":"Indian Hill Medical Offices","address":{"street":"250 W. San Jose Street","city":"Claremont","state":"CA","zip":"91711"},"url":"http:\/\/kp.org\/kpweb\/facilitydir\/facility.do?id=100118","loc":["-117.717","34.0826"]},{"facility_type":"Medical Office Building","official_name":"Lancaster Medical Offices","address":{"street":"43112 15th St. West","city":"Lancaster","state":"CA","zip":"93534"},"url":"http:\/\/kp.org\/kpweb\/facilitydir\/facility.do?id=100105","loc":["-118.155","34.6646"]},{"facility_type":"Medical Office Building","official_name":"Lomita Medical Offices","address":{"street":"2081 Palos Verdes Drive North","city":"Lomita","state":"CA","zip":"90717"},"url":"http:\/\/kp.org\/kpweb\/facilitydir\/facility.do?id=100101","loc":["-118.315","33.7767"]},{"facility_type":"Medical Office Building","official_name":"Mission Bay Medical Offices","address":{"street":"3033 Bunker Hill St.","city":"San Diego","state":"CA","zip":"92109"},"url":"http:\/\/kp.org\/kpweb\/facilitydir\/facility.do?id=100090","loc":["-117.215","32.8034"]},{"facility_type":"Medical Office Building","official_name":"Mission Hills Medical Offices","address":{"street":"11001 Sepulveda Blvd.","city":"Mission Hills","state":"CA","zip":"91345"},"url":"http:\/\/kp.org\/kpweb\/facilitydir\/facility.do?id=300017","loc":["-118.468","34.2698"]},{"facility_type":"Medical Office Building","official_name":"Mission Viejo Medical Offices","address":{"street":"23781 Maquina Ave.","city":"Mission Viejo","state":"CA","zip":"92691"},"url":"http:\/\/kp.org\/kpweb\/facilitydir\/facility.do?id=100092","loc":["-117.678","33.618"]},{"facility_type":"Medical Office Building","official_name":"Ming Medical Offices","address":{"street":"8800 Ming Ave.","city":"Bakersfield","state":"CA","zip":"93311"},"url":"http:\/\/kp.org\/kpweb\/facilitydir\/facility.do?id=100091","loc":["-119.1","35.3407"]},{"facility_type":"Medical Office Building","official_name":"Mental Health Center","address":{"street":"765 W. College St.","city":"Los Angeles","state":"CA","zip":"90012"},"url":"http:\/\/kp.org\/kpweb\/facilitydir\/facility.do?id=100121","loc":["-118.243","34.0666"]},{"facility_type":"Medical Office Building","official_name":"Long Beach Medical Offices","address":{"street":"3900 E. Pacific Coast Highway","city":"Long Beach","state":"CA","zip":"90804"},"url":"http:\/\/kp.org\/kpweb\/facilitydir\/facility.do?id=100119","loc":["-118.146","33.7894"]},{"facility_type":"Medical Office Building","official_name":"Lynwood Medical Offices","address":{"street":"3830 Martin Luther King Jr. Blvd.","city":"Lynwood","state":"CA","zip":"90262"},"url":"http:\/\/kp.org\/kpweb\/facilitydir\/facility.do?id=100536","loc":["-118.198","33.9275"]},{"facility_type":"Medical Office Building","official_name":"Magnolia Village","address":{"street":"10917 Magnolia Ave.","city":"Riverside","state":"CA","zip":"92505"},"url":"http:\/\/kp.org\/kpweb\/facilitydir\/facility.do?id=100098","loc":["-117.474","33.9051"]},{"facility_type":"Medical Office Building","official_name":"Alton\/Sand Canyon Medical Offices","address":{"street":"6670 Alton Parkway","city":"Irvine","state":"CA","zip":"92618"},"url":"http:\/\/kp.org\/kpweb\/facilitydir\/facility.do?id=100055","loc":["-117.773","33.657"]}]}}